IRIDIUM 65 [+]          
1 25288U 98021D   16067.48128468  .00000043  00000-0  81202-5 0  9991
2 25288  86.3932  58.9626 0002411  86.9638 273.1834 14.34215962938120
IRIDIUM 66 [+]          
1 25289U 98021E   16067.50961324  .00000020  00000-0 -84659-7 0  9998
2 25289  86.3931  58.8581 0002333  89.3010  24.2681 14.34215461938122
IRIDIUM 67 [+]          
1 25290U 98021F   16067.49396895  .00000020  00000-0  82520-8 0  9998
2 25290  86.3933  58.9941 0002272  88.5484 271.5972 14.34215919938134
IRIDIUM 68 [+]          
1 25291U 98021G   16067.50031447  .00000038  00000-0  63902-5 0  9999
2 25291  86.3934  59.1014 0002310  90.7606 269.3855 14.34215897938101
IRIDIUM 69 [-]          
1 25319U 98026A   16067.53675543  .00000328  00000-0  10068-3 0  9994
2 25319  86.3947  82.0447 0003200  53.1282 307.0209 14.38562132935946
IRIDIUM 71 [-]          
1 25320U 98026B   16067.52233170  .00000251  00000-0  75047-4 0  9995
2 25320  86.3931  78.1638 0004225  83.9827 276.1852 14.38985792936350
IRIDIUM 70 [+]          
1 25342U 98032A   16067.55267640  .00000020  00000-0 -10164-6 0  9994
2 25342  86.3938  59.2991 0002401  89.8170  49.6200 14.34215907932214
IRIDIUM 72 [+]          
1 25343U 98032B   16067.53567029  .00000019  00000-0 -28780-6 0  9998
2 25343  86.3932  58.9485 0002307  88.4498  28.6788 14.34215704932219
IRIDIUM 73 [-]          
1 25344U 98032C   16067.44660643  .00000336  00000-0  83497-4 0  9990
2 25344  86.4423  40.1701 0002279 105.7824 254.3631 14.48903835939962
IRIDIUM 74 [S]          
1 25345U 98032D   16067.52519537  .00000079  00000-0  17492-4 0  9991
2 25345  86.4444  59.2849 0002224  84.3223  29.6669 14.42954484935459
IRIDIUM 75 [+]          
1 25346U 98032E   16067.54332213  .00000020  00000-0 -51086-7 0  9995
2 25346  86.3935  59.1812 0002278  88.6137  35.2748 14.34215811932782
IRIDIUM 3 [+]           
1 25431U 98048A   16067.59555676  .00000141  00000-0  43365-4 0  9993
2 25431  86.3924  90.7804 0002427  91.7287  21.7613 14.34214363918735
IRIDIUM 76 [+]          
1 25432U 98048B   16067.48402054  .00000023  00000-0  10496-5 0  9992
2 25432  86.3923  90.5963 0002213  92.2163  67.9858 14.34216409918704
IRIDIUM 82 [+]          
1 25467U 98051A   16067.56189754  .00000133  00000-0  40453-4 0  9999
2 25467  86.3983 217.1379 0002068  85.8921 274.2511 14.34211496919738
IRIDIUM 81 [+]          
1 25468U 98051B   16067.27643194  .00000212  00000-0  68774-4 0  9995
2 25468  86.3973 216.9001 0001963  93.6566 266.4855 14.34218525915912
IRIDIUM 80 [+]          
1 25469U 98051C   16067.47850774  .00000098  00000-0  27981-4 0  9999
2 25469  86.3977 217.0810 0001945  97.2080 323.7400 14.34215848915949
IRIDIUM 77 [+]          
1 25471U 98051E   16067.48504277  .00000124  00000-0  37074-4 0  9991
2 25471  86.3968 216.6944 0002150  97.1927 324.7448 14.34215841921148
IRIDIUM 2 [-]           
1 25527U 98066A   16067.44242750  .00004917  00000-0  26299-3 0  9990
2 25527  85.5317 307.3885 0010464  17.8724 342.2880 15.14770285947175
IRIDIUM 86 [+]          
1 25528U 98066B   16067.36177688  .00000317  00000-0  10599-3 0  9995
2 25528  86.4007 184.9558 0002374  97.3106 262.8359 14.34220149912457
IRIDIUM 84 [+]          
1 25530U 98066D   16067.39349000  .00000331  00000-0  11126-3 0  9993
2 25530  86.4010 185.0996 0002090  98.5717 261.5716 14.34220540910094
IRIDIUM 83 [+]          
1 25531U 98066E   16067.42520002  .00000307  00000-0  10249-3 0  9999
2 25531  86.4012 185.1924 0002094  98.5224 261.6209 14.34220759907452
IRIDIUM 20 [+]          
1 25577U 98074A   16067.48470775 -.00000138  00000-0 -56276-4 0  9990
2 25577  86.3916  90.5231 0002235  88.2936 271.8516 14.34218186901546
IRIDIUM 11 [+]          
1 25578U 98074B   16067.52774703  .00000035  00000-0  54634-5 0  9995
2 25578  86.3918  90.7120 0002282  88.4757  68.1535 14.34216898910516
IRIDIUM 14 [S]          
1 25777U 99032A   16067.49015602 -.00000012  00000-0 -11373-4 0  9992
2 25777  86.3935  59.0413 0002342  84.7058  26.6959 14.34215396887782
IRIDIUM 21 [+]          
1 25778U 99032B   16067.50665389  .00000048  00000-0  10139-4 0  9994
2 25778  86.3933  59.0585 0002178  91.6358 268.5087 14.34216178881229
IRIDIUM 91 [+]          
1 27372U 02005A   16067.56702676  .00000230  00000-0  75133-4 0  9995
2 27372  86.3975 122.8816 0002112  89.2948  23.2877 14.34216028744741
IRIDIUM 90 [S]          
1 27373U 02005B   16067.34989589  .00000402  00000-0  11434-3 0  9996
2 27373  86.4523 185.1896 0002432 102.6027 257.5445 14.42963232744035
IRIDIUM 94 [S]          
1 27374U 02005C   16067.53768492  .00000003  00000-0 -60905-5 0  9993
2 27374  86.3920  90.8284 0002869 106.4286   3.3994 14.34215950749064
IRIDIUM 95 [+]          
1 27375U 02005D   16067.58329195  .00000238  00000-0  77760-4 0  9997
2 27375  86.3974 122.6580 0002324  98.0972 262.0488 14.34217462744035
IRIDIUM 96 [S]          
1 27376U 02005E   16067.56134449  .00000328  00000-0  11023-3 0  9991
2 27376  86.4038 154.1332 0001920 139.5527 220.5811 14.34215678749234
IRIDIUM 97 [+]          
1 27450U 02031A   16067.39009976  .00000437  00000-0  14888-3 0  9993
2 27450  86.4006 154.0529 0002048  94.1409 266.0021 14.34214192723326
IRIDIUM 98 [S]          
1 27451U 02031B   16067.53067855  .00000109  00000-0  31850-4 0  9995
2 27451  86.3968 217.2463 0001892  93.8056 334.5260 14.34215862724414
